RANGE-A                 
1 43773U 18099R   26068.70590171  .00005536  00000+0  32166-3 0  9992
2 43773  97.4107 114.1927 0009674 340.4473  19.6386 15.12458640397457
STARLINK-4132           
1 53252U 22086L   26068.57346307  .00000105  00000+0  24676-4 0  9996
2 53252  53.2173 194.5921 0001138 104.9570 255.1548 15.08836694201069
